ONEWEB-0087             
1 45451U 20020AD  25351.21605376 -.00000464  00000+0 -13465-2 0  9995
2 45451  87.8871  57.2521 0002037 100.3335 259.8023 13.11415984278732
ONEWEB-0082             
1 45452U 20020AE  25351.21279209 -.00000354  00000+0 -10349-2 0  9994
2 45452  87.8872  57.2779 0002006 100.2755 259.8599 13.11414548278823
ONEWEB-0050             
1 45453U 20020AF  25351.27550502  .00002629  00000+0  27347-3 0  9991
2 45453  88.9241 258.0240 0000397 294.7842  65.3345 14.89580770313294
ONEWEB-0034             
1 45454U 20020AG  25351.23399845 -.00000062  00000+0 -21106-3 0  9997
2 45454  87.8860  57.2871 0001764 101.8348 258.2978 13.11418148278745
ONEWEB-0060             
1 45455U 20020AH  25351.20516520 -.00000183  00000+0 -55225-3 0  9999
2 45455  87.8849  57.3099 0002759  93.5312 266.6131 13.11416250278699
ONEWEB-0086             
1 45456U 20020AJ  25351.26028984  .00000567  00000+0  15647-2 0  9995
2 45456  87.8861  57.2788 0002138  82.7765 277.3606 13.11416500278763
ONEWEB-0088             
1 45457U 20020AK  25351.23824079  .00000163  00000+0  42492-3 0  9993
2 45457  87.8874  57.2392 0001871 110.8397 249.2932 13.11414501278697
ONEWEB-0102             
1 47258U 20100A   25351.15623045  .00000206  00000+0  53598-3 0  9991
2 47258  87.8931  26.8439 0001681  93.5039 266.6282 13.12552595240850
ONEWEB-0109             
1 47259U 20100B   25351.16452055  .00000397  00000+0  10673-2 0  9991
2 47259  87.8937  26.8113 0001683  94.2409 265.8912 13.12504334240687
ONEWEB-0110             
1 47260U 20100C   25351.11486943  .00000020  00000+0  20685-4 0  9990
2 47260  87.8938  26.8053 0001961  89.5666 270.5688 13.12349443240843
ONEWEB-0111             
1 47261U 20100D   25351.14550460 -.00000249  00000+0 -72840-3 0  9994
2 47261  87.8938  26.8172 0001741  95.7084 264.4243 13.12394064240685
ONEWEB-0114             
1 47262U 20100E   25351.17616615  .00000470  00000+0  12705-2 0  9990
2 47262  87.8940  26.8060 0001418  97.9601 262.1688 13.12437150240643
ONEWEB-0117             
1 47263U 20100F   25351.16784311  .00000493  00000+0  13349-2 0  9999
2 47263  87.8937  26.8045 0001809  96.2784 263.8551 13.12484564240650
ONEWEB-0118             
1 47264U 20100G   25351.35359024 -.00000327  00000+0 -94682-3 0  9998
2 47264  87.8938  26.7675 0001529 106.8505 253.2792 13.12293263240876
ONEWEB-0119             
1 47265U 20100H   25351.15124830  .00000006  00000+0 -18851-4 0  9990
2 47265  87.8929  26.8414 0001733  94.7062 265.4265 13.12581122240828
ONEWEB-0120             
1 47266U 20100J   25351.17462888  .00000525  00000+0  14237-2 0  9998
2 47266  87.8929  26.8380 0001687  97.8238 262.3082 13.12449154240852
ONEWEB-0121             
1 47267U 20100K   25351.16288059  .00000369  00000+0  98953-3 0  9998
2 47267  87.8937  26.8092 0001934  92.7186 267.4164 13.12514750240765
