[{"OBJECT_NAME":"ONEWEB-0087","OBJECT_ID":"2020-020AD","EPOCH":"2025-12-17T05:11:07.044864","MEAN_MOTION":13.11415984,"ECCENTRICITY":0.0002037,"INCLINATION":87.8871,"RA_OF_ASC_NODE":57.2521,"ARG_OF_PERICENTER":100.3335,"MEAN_ANOMALY":259.8023,"EPHEMERIS_TYPE":0,"CLASSIFICATION_TYPE":"U","NORAD_CAT_ID":45451,"ELEMENT_SET_NO":999,"REV_AT_EPOCH":27873,"BSTAR":-0.0013465044,"MEAN_MOTION_DOT":-4.64e-6,"MEAN_MOTION_DDOT":0},{"OBJECT_NAME":"ONEWEB-0082","OBJECT_ID":"2020-020AE","EPOCH":"2025-12-17T05:06:25.236576","MEAN_MOTION":13.11414548,"ECCENTRICITY":0.00020066,"INCLINATION":87.8872,"RA_OF_ASC_NODE":57.2779,"ARG_OF_PERICENTER":100.2755,"MEAN_ANOMALY":259.8599,"EPHEMERIS_TYPE":0,"CLASSIFICATION_TYPE":"U","NORAD_CAT_ID":45452,"ELEMENT_SET_NO":999,"REV_AT_EPOCH":27882,"BSTAR":-0.0010349274,"MEAN_MOTION_DOT":-3.54e-6,"MEAN_MOTION_DDOT":0},{"OBJECT_NAME":"ONEWEB-0050","OBJECT_ID":"2020-020AF","EPOCH":"2025-12-17T06:36:43.633728","MEAN_MOTION":14.8958077,"ECCENTRICITY":3.974e-5,"INCLINATION":88.9241,"RA_OF_ASC_NODE":258.024,"ARG_OF_PERICENTER":294.7842,"MEAN_ANOMALY":65.3345,"EPHEMERIS_TYPE":0,"CLASSIFICATION_TYPE":"U","NORAD_CAT_ID":45453,"ELEMENT_SET_NO":999,"REV_AT_EPOCH":31329,"BSTAR":0.00027346958,"MEAN_MOTION_DOT":2.629e-5,"MEAN_MOTION_DDOT":0},{"OBJECT_NAME":"ONEWEB-0034","OBJECT_ID":"2020-020AG","EPOCH":"2025-12-17T05:36:57.466080","MEAN_MOTION":13.11418148,"ECCENTRICITY":0.0001764,"INCLINATION":87.886,"RA_OF_ASC_NODE":57.2871,"ARG_OF_PERICENTER":101.8348,"MEAN_ANOMALY":258.2978,"EPHEMERIS_TYPE":0,"CLASSIFICATION_TYPE":"U","NORAD_CAT_ID":45454,"ELEMENT_SET_NO":999,"REV_AT_EPOCH":27874,"BSTAR":-0.00021105812,"MEAN_MOTION_DOT":-6.2e-7,"MEAN_MOTION_DDOT":0},{"OBJECT_NAME":"ONEWEB-0060","OBJECT_ID":"2020-020AH","EPOCH":"2025-12-17T04:55:26.273280","MEAN_MOTION":13.1141625,"ECCENTRICITY":0.00027594,"INCLINATION":87.8849,"RA_OF_ASC_NODE":57.3099,"ARG_OF_PERICENTER":93.5312,"MEAN_ANOMALY":266.6131,"EPHEMERIS_TYPE":0,"CLASSIFICATION_TYPE":"U","NORAD_CAT_ID":45455,"ELEMENT_SET_NO":999,"REV_AT_EPOCH":27869,"BSTAR":-0.00055224944,"MEAN_MOTION_DOT":-1.83e-6,"MEAN_MOTION_DDOT":0},{"OBJECT_NAME":"ONEWEB-0086","OBJECT_ID":"2020-020AJ","EPOCH":"2025-12-17T06:14:49.042176","MEAN_MOTION":13.114165,"ECCENTRICITY":0.00021384,"INCLINATION":87.8861,"RA_OF_ASC_NODE":57.2788,"ARG_OF_PERICENTER":82.7765,"MEAN_ANOMALY":277.3606,"EPHEMERIS_TYPE":0,"CLASSIFICATION_TYPE":"U","NORAD_CAT_ID":45456,"ELEMENT_SET_NO":999,"REV_AT_EPOCH":27876,"BSTAR":0.0015647225,"MEAN_MOTION_DOT":5.67e-6,"MEAN_MOTION_DDOT":0},{"OBJECT_NAME":"ONEWEB-0088","OBJECT_ID":"2020-020AK","EPOCH":"2025-12-17T05:43:04.004256","MEAN_MOTION":13.11414501,"ECCENTRICITY":0.00018716,"INCLINATION":87.8874,"RA_OF_ASC_NODE":57.2392,"ARG_OF_PERICENTER":110.8397,"MEAN_ANOMALY":249.2932,"EPHEMERIS_TYPE":0,"CLASSIFICATION_TYPE":"U","NORAD_CAT_ID":45457,"ELEMENT_SET_NO":999,"REV_AT_EPOCH":27869,"BSTAR":0.00042492251,"MEAN_MOTION_DOT":1.63e-6,"MEAN_MOTION_DDOT":0},{"OBJECT_NAME":"ONEWEB-0102","OBJECT_ID":"2020-100A","EPOCH":"2025-12-17T03:44:58.310880","MEAN_MOTION":13.12552595,"ECCENTRICITY":0.00016816,"INCLINATION":87.8931,"RA_OF_ASC_NODE":26.8439,"ARG_OF_PERICENTER":93.5039,"MEAN_ANOMALY":266.6282,"EPHEMERIS_TYPE":0,"CLASSIFICATION_TYPE":"U","NORAD_CAT_ID":47258,"ELEMENT_SET_NO":999,"REV_AT_EPOCH":24085,"BSTAR":0.00053597819,"MEAN_MOTION_DOT":2.06e-6,"MEAN_MOTION_DDOT":0},{"OBJECT_NAME":"ONEWEB-0109","OBJECT_ID":"2020-100B","EPOCH":"2025-12-17T03:56:54.575520","MEAN_MOTION":13.12504334,"ECCENTRICITY":0.00016837,"INCLINATION":87.8937,"RA_OF_ASC_NODE":26.8113,"ARG_OF_PERICENTER":94.2409,"MEAN_ANOMALY":265.8912,"EPHEMERIS_TYPE":0,"CLASSIFICATION_TYPE":"U","NORAD_CAT_ID":47259,"ELEMENT_SET_NO":999,"REV_AT_EPOCH":24068,"BSTAR":0.0010673432,"MEAN_MOTION_DOT":3.97e-6,"MEAN_MOTION_DDOT":0},{"OBJECT_NAME":"ONEWEB-0110","OBJECT_ID":"2020-100C","EPOCH":"2025-12-17T02:45:24.718752","MEAN_MOTION":13.12349443,"ECCENTRICITY":0.00019619,"INCLINATION":87.8938,"RA_OF_ASC_NODE":26.8053,"ARG_OF_PERICENTER":89.5666,"MEAN_ANOMALY":270.5688,"EPHEMERIS_TYPE":0,"CLASSIFICATION_TYPE":"U","NORAD_CAT_ID":47260,"ELEMENT_SET_NO":999,"REV_AT_EPOCH":24084,"BSTAR":2.0684738e-5,"MEAN_MOTION_DOT":2.0e-7,"MEAN_MOTION_DDOT":0},{"OBJECT_NAME":"ONEWEB-0111","OBJECT_ID":"2020-100D","EPOCH":"2025-12-17T03:29:31.597440","MEAN_MOTION":13.12394064,"ECCENTRICITY":0.00017416,"INCLINATION":87.8938,"RA_OF_ASC_NODE":26.8172,"ARG_OF_PERICENTER":95.7084,"MEAN_ANOMALY":264.4243,"EPHEMERIS_TYPE":0,"CLASSIFICATION_TYPE":"U","NORAD_CAT_ID":47261,"ELEMENT_SET_NO":999,"REV_AT_EPOCH":24068,"BSTAR":-0.00072839615,"MEAN_MOTION_DOT":-2.49e-6,"MEAN_MOTION_DDOT":0},{"OBJECT_NAME":"ONEWEB-0114","OBJECT_ID":"2020-100E","EPOCH":"2025-12-17T04:13:40.755360","MEAN_MOTION":13.1243715,"ECCENTRICITY":0.00014186,"INCLINATION":87.894,"RA_OF_ASC_NODE":26.806,"ARG_OF_PERICENTER":97.9601,"MEAN_ANOMALY":262.1688,"EPHEMERIS_TYPE":0,"CLASSIFICATION_TYPE":"U","NORAD_CAT_ID":47262,"ELEMENT_SET_NO":999,"REV_AT_EPOCH":24064,"BSTAR":0.0012705025,"MEAN_MOTION_DOT":4.7e-6,"MEAN_MOTION_DDOT":0},{"OBJECT_NAME":"ONEWEB-0117","OBJECT_ID":"2020-100F","EPOCH":"2025-12-17T04:01:41.644704","MEAN_MOTION":13.12484564,"ECCENTRICITY":0.00018094,"INCLINATION":87.8937,"RA_OF_ASC_NODE":26.8045,"ARG_OF_PERICENTER":96.2784,"MEAN_ANOMALY":263.8551,"EPHEMERIS_TYPE":0,"CLASSIFICATION_TYPE":"U","NORAD_CAT_ID":47263,"ELEMENT_SET_NO":999,"REV_AT_EPOCH":24065,"BSTAR":0.0013349253,"MEAN_MOTION_DOT":4.93e-6,"MEAN_MOTION_DDOT":0},{"OBJECT_NAME":"ONEWEB-0118","OBJECT_ID":"2020-100G","EPOCH":"2025-12-17T08:29:10.196736","MEAN_MOTION":13.12293263,"ECCENTRICITY":0.00015299,"INCLINATION":87.8938,"RA_OF_ASC_NODE":26.7675,"ARG_OF_PERICENTER":106.8505,"MEAN_ANOMALY":253.2792,"EPHEMERIS_TYPE":0,"CLASSIFICATION_TYPE":"U","NORAD_CAT_ID":47264,"ELEMENT_SET_NO":999,"REV_AT_EPOCH":24087,"BSTAR":-0.00094681503,"MEAN_MOTION_DOT":-3.27e-6,"MEAN_MOTION_DDOT":0},{"OBJECT_NAME":"ONEWEB-0119","OBJECT_ID":"2020-100H","EPOCH":"2025-12-17T03:37:47.853120","MEAN_MOTION":13.12581122,"ECCENTRICITY":0.00017331,"INCLINATION":87.8929,"RA_OF_ASC_NODE":26.8414,"ARG_OF_PERICENTER":94.7062,"MEAN_ANOMALY":265.4265,"EPHEMERIS_TYPE":0,"CLASSIFICATION_TYPE":"U","NORAD_CAT_ID":47265,"ELEMENT_SET_NO":999,"REV_AT_EPOCH":24082,"BSTAR":-1.8851479e-5,"MEAN_MOTION_DOT":6.0e-8,"MEAN_MOTION_DDOT":0},{"OBJECT_NAME":"ONEWEB-0120","OBJECT_ID":"2020-100J","EPOCH":"2025-12-17T04:11:27.935232","MEAN_MOTION":13.12449154,"ECCENTRICITY":0.0001687,"INCLINATION":87.8929,"RA_OF_ASC_NODE":26.838,"ARG_OF_PERICENTER":97.8238,"MEAN_ANOMALY":262.3082,"EPHEMERIS_TYPE":0,"CLASSIFICATION_TYPE":"U","NORAD_CAT_ID":47266,"ELEMENT_SET_NO":999,"REV_AT_EPOCH":24085,"BSTAR":0.0014237013,"MEAN_MOTION_DOT":5.25e-6,"MEAN_MOTION_DDOT":0},{"OBJECT_NAME":"ONEWEB-0121","OBJECT_ID":"2020-100K","EPOCH":"2025-12-17T03:54:32.882976","MEAN_MOTION":13.1251475,"ECCENTRICITY":0.00019347,"INCLINATION":87.8937,"RA_OF_ASC_NODE":26.8092,"ARG_OF_PERICENTER":92.7186,"MEAN_ANOMALY":267.4164,"EPHEMERIS_TYPE":0,"CLASSIFICATION_TYPE":"U","NORAD_CAT_ID":47267,"ELEMENT_SET_NO":999,"REV_AT_EPOCH":24076,"BSTAR":0.00098953152,"MEAN_MOTION_DOT":3.69e-6,"MEAN_MOTION_DDOT":0}]
